[
    {
        "Altitude(m)": 561736.6077760309,
        "Argument of Periapsis(deg)": 0.019868973332140504,
        "Eccentricity": 0.0,
        "Inclination(deg)": 53.0,
        "Latitude(deg)": -28.013808350958957,
        "Longitude(deg)": 1.1173823656257198,
        "Mean Anomaly(deg)": -144.2706213972672,
        "RAAN(deg)": 259.97043010558406,
        "Satellite Name": "Starlink Shell 1 1155",
        "Satellite Number": 1155,
        "Semi-Major Axis(m)": 6931778.249405717,
        "Time(s)": 570
    },
    {
        "Altitude(m)": 561910.621530488,
        "Argument of Periapsis(deg)": 0.02021755181165174,
        "Eccentricity": 0.0,
        "Inclination(deg)": 53.0,
        "Latitude(deg)": -28.473316954586227,
        "Longitude(deg)": 1.559855477859097,
        "Mean Anomaly(deg)": -143.64379019371054,
        "RAAN(deg)": 259.9699113355066,
        "Satellite Name": "Starlink Shell 1 1155",
        "Satellite Number": 1155,
        "Semi-Major Axis(m)": 6931778.249405717,
        "Time(s)": 580
    },
    {
        "Altitude(m)": 562085.0165745398,
        "Argument of Periapsis(deg)": 0.020566130291162974,
        "Eccentricity": 0.0,
        "Inclination(deg)": 53.0,
        "Latitude(deg)": -28.931045555814357,
        "Longitude(deg)": 2.0065069219263907,
        "Mean Anomaly(deg)": -143.0169589901538,
        "RAAN(deg)": 259.96939256542913,
        "Satellite Name": "Starlink Shell 1 1155",
        "Satellite Number": 1155,
        "Semi-Major Axis(m)": 6931778.249405717,
        "Time(s)": 590
    },
    {
        "Altitude(m)": 562259.7280704445,
        "Argument of Periapsis(deg)": 0.020914708770674213,
        "Eccentricity": 0.0,
        "Inclination(deg)": 53.0,
        "Latitude(deg)": -29.38694578712323,
        "Longitude(deg)": 2.457437152718587,
        "Mean Anomaly(deg)": -142.39012778659713,
        "RAAN(deg)": 259.96887379535167,
        "Satellite Name": "Starlink Shell 1 1155",
        "Satellite Number": 1155,
        "Semi-Major Axis(m)": 6931778.249405717,
        "Time(s)": 600
    },
    {
        "Altitude(m)": 562434.6908921782,
        "Argument of Periapsis(deg)": 0.021263287250185448,
        "Eccentricity": 0.0,
        "Inclination(deg)": 53.0,
        "Latitude(deg)": -29.840968203986836,
        "Longitude(deg)": 2.912747919719458,
        "Mean Anomaly(deg)": -141.76329658304044,
        "RAAN(deg)": 259.96835502527415,
        "Satellite Name": "Starlink Shell 1 1155",
        "Satellite Number": 1155,
        "Semi-Major Axis(m)": 6931778.249405717,
        "Time(s)": 610
    },
    {
        "Altitude(m)": 562609.8396546734,
        "Argument of Periapsis(deg)": 0.021611865729696686,
        "Eccentricity": 0.0,
        "Inclination(deg)": 53.0,
        "Latitude(deg)": -30.293062254303507,
        "Longitude(deg)": 3.3725427635734304,
        "Mean Anomaly(deg)": -141.1364653794836,
        "RAAN(deg)": 259.9678362551967,
        "Satellite Name": "Starlink Shell 1 1155",
        "Satellite Number": 1155,
        "Semi-Major Axis(m)": 6931778.249405717,
        "Time(s)": 620
    },
    {
        "Altitude(m)": 562785.1087431164,
        "Argument of Periapsis(deg)": 0.02196044420920792,
        "Eccentricity": 0.0,
        "Inclination(deg)": 53.0,
        "Latitude(deg)": -30.74317624744577,
        "Longitude(deg)": 3.8369258280454424,
        "Mean Anomaly(deg)": -140.50963417592695,
        "RAAN(deg)": 259.9673174851192,
        "Satellite Name": "Starlink Shell 1 1155",
        "Satellite Number": 1155,
        "Semi-Major Axis(m)": 6931778.249405717,
        "Time(s)": 630
    },
    {
        "Altitude(m)": 562960.432342381,
        "Argument of Periapsis(deg)": 0.02230902268871916,
        "Eccentricity": 0.0,
        "Inclination(deg)": 53.0,
        "Latitude(deg)": -31.19125732295578,
        "Longitude(deg)": 4.306003189504577,
        "Mean Anomaly(deg)": -139.88280297237029,
        "RAAN(deg)": 259.96679871504176,
        "Satellite Name": "Starlink Shell 1 1155",
        "Satellite Number": 1155,
        "Semi-Major Axis(m)": 6931778.249405717,
        "Time(s)": 640
    },
    {
        "Altitude(m)": 563135.744466526,
        "Argument of Periapsis(deg)": 0.022657601168230398,
        "Eccentricity": 0.0,
        "Inclination(deg)": 53.0,
        "Latitude(deg)": -31.637251418931562,
        "Longitude(deg)": 4.779881660704146,
        "Mean Anomaly(deg)": -139.25597176881345,
        "RAAN(deg)": 259.9662799449643,
        "Satellite Name": "Starlink Shell 1 1155",
        "Satellite Number": 1155,
        "Semi-Major Axis(m)": 6931778.249405717,
        "Time(s)": 650
    },
    {
        "Altitude(m)": 563310.9789883627,
        "Argument of Periapsis(deg)": 0.023006179647741636,
        "Eccentricity": 0.0,
        "Inclination(deg)": 53.0,
        "Latitude(deg)": -32.08110324013846,
        "Longitude(deg)": 5.258669270952876,
        "Mean Anomaly(deg)": -138.62914056525676,
        "RAAN(deg)": 259.9657611748868,
        "Satellite Name": "Starlink Shell 1 1155",
        "Satellite Number": 1155,
        "Semi-Major Axis(m)": 6931778.249405717,
        "Time(s)": 660
    },
    {
        "Altitude(m)": 563486.0696690966,
        "Argument of Periapsis(deg)": 0.023354758127252868,
        "Eccentricity": 0.0,
        "Inclination(deg)": 53.0,
        "Latitude(deg)": -32.522756225899194,
        "Longitude(deg)": 5.7424757413595025,
        "Mean Anomaly(deg)": -138.0023093617001,
        "RAAN(deg)": 259.9652424048093,
        "Satellite Name": "Starlink Shell 1 1155",
        "Satellite Number": 1155,
        "Semi-Major Axis(m)": 6931778.249405717,
        "Time(s)": 670
    },
    {
        "Altitude(m)": 563660.9501879687,
        "Argument of Periapsis(deg)": 0.023703336606764106,
        "Eccentricity": 0.0,
        "Inclination(deg)": 53.0,
        "Latitude(deg)": -32.962152517816165,
        "Longitude(deg)": 6.231411441903097,
        "Mean Anomaly(deg)": -137.37547815814338,
        "RAAN(deg)": 259.9647236347319,
        "Satellite Name": "Starlink Shell 1 1155",
        "Satellite Number": 1155,
        "Semi-Major Axis(m)": 6931778.249405717,
        "Time(s)": 680
    },
    {
        "Altitude(m)": 563835.5541719618,
        "Argument of Periapsis(deg)": 0.024051915086275345,
        "Eccentricity": 0.0,
        "Inclination(deg)": 53.0,
        "Latitude(deg)": -33.39923292738261,
        "Longitude(deg)": 6.725587855690209,
        "Mean Anomaly(deg)": -136.7486469545866,
        "RAAN(deg)": 259.9642048646544,
        "Satellite Name": "Starlink Shell 1 1155",
        "Satellite Number": 1155,
        "Semi-Major Axis(m)": 6931778.249405717,
        "Time(s)": 690
    },
    {
        "Altitude(m)": 564009.8152255152,
        "Argument of Periapsis(deg)": 0.024400493565786583,
        "Eccentricity": 0.0,
        "Inclination(deg)": 53.0,
        "Latitude(deg)": -33.833936903552335,
        "Longitude(deg)": 7.225118037116498,
        "Mean Anomaly(deg)": -136.12181575102994,
        "RAAN(deg)": 259.96368609457693,
        "Satellite Name": "Starlink Shell 1 1155",
        "Satellite Number": 1155,
        "Semi-Major Axis(m)": 6931778.249405717,
        "Time(s)": 700
    },
    {
        "Altitude(m)": 564183.6669602056,
        "Argument of Periapsis(deg)": 0.024749072045297815,
        "Eccentricity": 0.0,
        "Inclination(deg)": 53.0,
        "Latitude(deg)": -34.26620250034497,
        "Longitude(deg)": 7.7301155506295105,
        "Mean Anomaly(deg)": -135.49498454747328,
        "RAAN(deg)": 259.96316732449947,
        "Satellite Name": "Starlink Shell 1 1155",
        "Satellite Number": 1155,
        "Semi-Major Axis(m)": 6931778.249405717,
        "Time(s)": 710
    },
    {
        "Altitude(m)": 564357.04302446,
        "Argument of Periapsis(deg)": 0.025097650524809053,
        "Eccentricity": 0.0,
        "Inclination(deg)": 53.0,
        "Latitude(deg)": -34.695966344564006,
        "Longitude(deg)": 8.24069491539296,
        "Mean Anomaly(deg)": -134.86815334391653,
        "RAAN(deg)": 259.962648554422,
        "Satellite Name": "Starlink Shell 1 1155",
        "Satellite Number": 1155,
        "Semi-Major Axis(m)": 6931778.249405717,
        "Time(s)": 720
    },
    {
        "Altitude(m)": 564529.8771331881,
        "Argument of Periapsis(deg)": 0.02544622900432029,
        "Eccentricity": 0.0,
        "Inclination(deg)": 53.0,
        "Latitude(deg)": -35.12316360372072,
        "Longitude(deg)": 8.756972042509634,
        "Mean Anomaly(deg)": -134.24132214035976,
        "RAAN(deg)": 259.9621297843445,
        "Satellite Name": "Starlink Shell 1 1155",
        "Satellite Number": 1155,
        "Semi-Major Axis(m)": 6931778.249405717,
        "Time(s)": 730
    },
    {
        "Altitude(m)": 564702.1030974216,
        "Argument of Periapsis(deg)": 0.02579480748383153,
        "Eccentricity": 0.0,
        "Inclination(deg)": 53.0,
        "Latitude(deg)": -35.54772795426762,
        "Longitude(deg)": 9.27906315144417,
        "Mean Anomaly(deg)": -133.61449093680312,
        "RAAN(deg)": 259.961611014267,
        "Satellite Name": "Starlink Shell 1 1155",
        "Satellite Number": 1155,
        "Semi-Major Axis(m)": 6931778.249405717,
        "Time(s)": 740
    },
    {
        "Altitude(m)": 564873.6548538522,
        "Argument of Periapsis(deg)": 0.026143385963342765,
        "Eccentricity": 0.0,
        "Inclination(deg)": 53.0,
        "Latitude(deg)": -35.969591550244765,
        "Longitude(deg)": 9.807085190885278,
        "Mean Anomaly(deg)": -132.98765973324635,
        "RAAN(deg)": 259.96109224418956,
        "Satellite Name": "Starlink Shell 1 1155",
        "Satellite Number": 1155,
        "Semi-Major Axis(m)": 6931778.249405717,
        "Time(s)": 750
    }
]